{
  "type": "FeatureCollection",
  "features": [
    {
      "type": "Feature",
      "properties": {
        "norad_id": 30315,
        "name": "FENGYUN 1C DEB",
        "group": "fengyun-1c-debris",
        "lat": 28.765755546540262,
        "lon": -7.907085765215756,
        "alt_km": 805.2644001530789,
        "timestamp": "2025-12-13T08:49:15.961620+00:00",
        "meta_object_name": "FENGYUN 1C DEB",
        "meta_object_id": "1999-025AAC",
        "meta_epoch": "2025-12-13T00:30:30.891168",
        "meta_mean_motion": 14.1906486,
        "meta_eccentricity": 0.00352404,
        "meta_inclination": 98.6018,
        "meta_ra_of_asc_node": 356.5233,
        "meta_arg_of_pericenter": 359.5033,
        "meta_mean_anomaly": 61.1116,
        "meta_ephemeris_type": 0,
        "meta_classification_type": "U",
        "meta_norad_cat_id": 30315,
        "meta_element_set_no": 999,
        "meta_rev_at_epoch": 97711,
        "meta_bstar": 0.00048303339,
        "meta_mean_motion_dot": 9.73e-06,
        "meta_mean_motion_ddot": 0,
        "tle_line1": "1 30315U 99025AAC 25347.02119087  .00000973  00000+0  48303-3 0  9995",
        "tle_line2": "2 30315  98.6018 356.5233 0035240 359.5033  61.1116 14.19064860977115"
      },
      "geometry": {
        "type": "Point",
        "coordinates": [
          -7.907085765215756,
          28.765755546540262
        ]
      }
    },
    {
      "type": "Feature",
      "properties": {
        "norad_id": 30316,
        "name": "FENGYUN 1C DEB",
        "group": "fengyun-1c-debris",
        "lat": 13.81548571822405,
        "lon": -88.0519515346939,
        "alt_km": 722.3771838245666,
        "timestamp": "2025-12-13T08:49:15.961630+00:00",
        "meta_object_name": "FENGYUN 1C DEB",
        "meta_object_id": "1999-025AAD",
        "meta_epoch": "2025-12-12T05:40:35.575104",
        "meta_mean_motion": 14.56054268,
        "meta_eccentricity": 0.00356636,
        "meta_inclination": 98.6477,
        "meta_ra_of_asc_node": 88.6316,
        "meta_arg_of_pericenter": 41.2469,
        "meta_mean_anomaly": 319.1412,
        "meta_ephemeris_type": 0,
        "meta_classification_type": "U",
        "meta_norad_cat_id": 30316,
        "meta_element_set_no": 999,
        "meta_rev_at_epoch": 98329,
        "meta_bstar": 0.0033525957,
        "meta_mean_motion_dot": 0.00014875,
        "meta_mean_motion_ddot": 0,
        "tle_line1": "1 30316U 99025AAD 25346.23652286  .00014875  00000+0  33526-2 0  9997",
        "tle_line2": "2 30316  98.6477  88.6316 0035663  41.2469 319.1412 14.56054268983290"
      },
      "geometry": {
        "type": "Point",
        "coordinates": [
          -88.0519515346939,
          13.81548571822405
        ]
      }
    },
    {
      "type": "Feature",
      "properties": {
        "norad_id": 30317,
        "name": "FENGYUN 1C DEB",
        "group": "fengyun-1c-debris",
        "lat": -6.16265221358425,
        "lon": -11.22078024780634,
        "alt_km": 870.0856283450184,
        "timestamp": "2025-12-13T08:49:15.961640+00:00",
        "meta_object_name": "FENGYUN 1C DEB",
        "meta_object_id": "1999-025AAE",
        "meta_epoch": "2025-12-12T22:36:36.136224",
        "meta_mean_motion": 14.06947516,
        "meta_eccentricity": 0.00241232,
        "meta_inclination": 98.7865,
        "meta_ra_of_asc_node": 347.409,
        "meta_arg_of_pericenter": 276.1903,
        "meta_mean_anomaly": 83.6518,
        "meta_ephemeris_type": 0,
        "meta_classification_type": "U",
        "meta_norad_cat_id": 30317,
        "meta_element_set_no": 999,
        "meta_rev_at_epoch": 97016,
        "meta_bstar": 0.00032856889,
        "meta_mean_motion_dot": 5.06e-06,
        "meta_mean_motion_ddot": 0,
        "tle_line1": "1 30317U 99025AAE 25346.94208491  .00000506  00000+0  32857-3 0  9994",
        "tle_line2": "2 30317  98.7865 347.4090 0024123 276.1903  83.6518 14.06947516970163"
      },
      "geometry": {
        "type": "Point",
        "coordinates": [
          -11.22078024780634,
          -6.16265221358425
        ]
      }
    },
    {
      "type": "Feature",
      "properties": {
        "norad_id": 30320,
        "name": "FENGYUN 1C DEB",
        "group": "fengyun-1c-debris",
        "lat": 53.44205553431156,
        "lon": 34.06005530047342,
        "alt_km": 925.8558710780017,
        "timestamp": "2025-12-13T08:49:15.961651+00:00",
        "meta_object_name": "FENGYUN 1C DEB",
        "meta_object_id": "1999-025AAH",
        "meta_epoch": "2025-12-12T22:50:46.370112",
        "meta_mean_motion": 13.98555323,
        "meta_eccentricity": 0.0085136,
        "meta_inclination": 99.1877,
        "meta_ra_of_asc_node": 46.2506,
        "meta_arg_of_pericenter": 293.996,
        "meta_mean_anomaly": 188.2667,
        "meta_ephemeris_type": 0,
        "meta_classification_type": "U",
        "meta_norad_cat_id": 30320,
        "meta_element_set_no": 999,
        "meta_rev_at_epoch": 96410,
        "meta_bstar": 0.00015835385,
        "meta_mean_motion_dot": 1.88e-06,
        "meta_mean_motion_ddot": 0,
        "tle_line1": "1 30320U 99025AAH 25346.95192558  .00000188  00000+0  15835-3 0  9998",
        "tle_line2": "2 30320  99.1877  46.2506 0085136 293.9960 188.2667 13.98555323964107"
      },
      "geometry": {
        "type": "Point",
        "coordinates": [
          34.06005530047342,
          53.44205553431156
        ]
      }
    },
    {
      "type": "Feature",
      "properties": {
        "norad_id": 30321,
        "name": "FENGYUN 1C DEB",
        "group": "fengyun-1c-debris",
        "lat": 33.10915329042069,
        "lon": 172.08796302768525,
        "alt_km": 833.3459809471315,
        "timestamp": "2025-12-13T08:49:15.961661+00:00",
        "meta_object_name": "FENGYUN 1C DEB",
        "meta_object_id": "1999-025AAJ",
        "meta_epoch": "2025-12-12T22:14:34.993824",
        "meta_mean_motion": 14.1664094,
        "meta_eccentricity": 0.00599531,
        "meta_inclination": 98.6562,
        "meta_ra_of_asc_node": 345.958,
        "meta_arg_of_pericenter": 236.248,
        "meta_mean_anomaly": 184.2749,
        "meta_ephemeris_type": 0,
        "meta_classification_type": "U",
        "meta_norad_cat_id": 30321,
        "meta_element_set_no": 999,
        "meta_rev_at_epoch": 97546,
        "meta_bstar": 0.00045376546,
        "meta_mean_motion_dot": 8.79e-06,
        "meta_mean_motion_ddot": 0,
        "tle_line1": "1 30321U 99025AAJ 25346.92679391  .00000879  00000+0  45377-3 0  9992",
        "tle_line2": "2 30321  98.6562 345.9580 0059953 236.2480 184.2749 14.16640940975468"
      },
      "geometry": {
        "type": "Point",
        "coordinates": [
          172.08796302768525,
          33.10915329042069
        ]
      }
    },
    {
      "type": "Feature",
      "properties": {
        "norad_id": 30322,
        "name": "FENGYUN 1C DEB",
        "group": "fengyun-1c-debris",
        "lat": 45.9218634752647,
        "lon": 33.78783462177657,
        "alt_km": 910.937326091147,
        "timestamp": "2025-12-13T08:49:15.961671+00:00",
        "meta_object_name": "FENGYUN 1C DEB",
        "meta_object_id": "1999-025AAK",
        "meta_epoch": "2025-12-12T20:13:17.959872",
        "meta_mean_motion": 14.06098044,
        "meta_eccentricity": 0.01267471,
        "meta_inclination": 98.3984,
        "meta_ra_of_asc_node": 204.5252,
        "meta_arg_of_pericenter": 252.8415,
        "meta_mean_anomaly": 105.8844,
        "meta_ephemeris_type": 0,
        "meta_classification_type": "U",
        "meta_norad_cat_id": 30322,
        "meta_element_set_no": 999,
        "meta_rev_at_epoch": 96201,
        "meta_bstar": 0.0020006049,
        "meta_mean_motion_dot": 3.493e-05,
        "meta_mean_motion_ddot": 0,
        "tle_line1": "1 30322U 99025AAK 25346.84256898  .00003493  00000+0  20006-2 0  9993",
        "tle_line2": "2 30322  98.3984 204.5252 0126747 252.8415 105.8844 14.06098044962011"
      },
      "geometry": {
        "type": "Point",
        "coordinates": [
          33.78783462177657,
          45.9218634752647
        ]
      }
    },
    {
      "type": "Feature",
      "properties": {
        "norad_id": 30325,
        "name": "FENGYUN 1C DEB",
        "group": "fengyun-1c-debris",
        "lat": 8.632744590911393,
        "lon": -171.96400028175546,
        "alt_km": 862.2725182237054,
        "timestamp": "2025-12-13T08:49:15.961681+00:00",
        "meta_object_name": "FENGYUN 1C DEB",
        "meta_object_id": "1999-025AAL",
        "meta_epoch": "2025-12-12T11:33:35.800704",
        "meta_mean_motion": 14.09104128,
        "meta_eccentricity": 0.00152269,
        "meta_inclination": 98.7331,
        "meta_ra_of_asc_node": 5.8403,
        "meta_arg_of_pericenter": 253.9662,
        "meta_mean_anomaly": 105.9832,
        "meta_ephemeris_type": 0,
        "meta_classification_type": "U",
        "meta_norad_cat_id": 30325,
        "meta_element_set_no": 999,
        "meta_rev_at_epoch": 97012,
        "meta_bstar": 0.00018835229,
        "meta_mean_motion_dot": 2.84e-06,
        "meta_mean_motion_ddot": 0,
        "tle_line1": "1 30325U 99025AAL 25346.48166436  .00000284  00000+0  18835-3 0  9997",
        "tle_line2": "2 30325  98.7331   5.8403 0015226 253.9662 105.9832 14.09104128970122"
      },
      "geometry": {
        "type": "Point",
        "coordinates": [
          -171.96400028175546,
          8.632744590911393
        ]
      }
    }
  ]
}